TDRS 3                  
1 19548U 88091B   26115.48597887 -.00000313  00000+0  00000+0 0  9990
2 19548  12.6422 341.3539 0041033 355.9255   2.3192  1.00275272124852
HST                     
1 20580U 90037B   26115.58527907  .00006480  00000+0  20815-3 0  9998
2 20580  28.4745  79.9164 0001645 280.6914  79.3497 15.30144545780500
TDRS 5                  
1 21639U 91054B   26115.38789602  .00000071  00000+0  00000+0 0  9994
2 21639  14.0786 354.1737 0008092 285.1594 266.0118  1.00270227127186
TDRS 6                  
1 22314U 93003B   26115.15484587 -.00000308  00000+0  00000+0 0  9994
2 22314  14.1825 357.4542 0005911 179.4928  46.2104  1.00274136121871
TDRS 7                  
1 23613U 95035B   26115.95051675 -.00000253  00000+0  00000+0 0  9999
2 23613  13.3994 348.5502 0010905  64.5191 232.1375  1.00278334112728
ISS (ZARYA)             
1 25544U 98067A   26115.61933538  .00010271  00000+0  19457-3 0  9992
2 25544  51.6320 200.2872 0006949 349.7097  10.3748 15.48952974563604
TERRA                   
1 25994U 99068A   26115.89994652  .00000374  00000+0  85265-4 0  9991
2 25994  97.9503 167.5082 0003212  56.7601 355.4269 14.61060188401976
TDRS 8                  
1 26388U 00034A   26115.92164962 -.00000204  00000+0  00000+0 0  9993
2 26388  12.6032  31.7606 0006228 344.8840 253.7365  1.00277059 94651
TIMED                   
1 26998U 01055B   26115.75309725  .00000942  00000+0  89383-4 0  9997
2 26998  74.0685 340.5874 0001777 212.0989 148.0088 14.95166430322982
AQUA                    
1 27424U 02022A   26115.90622179  .00000850  00000+0  17918-3 0  9997
2 27424  98.4243  84.1595 0002029  96.0287 320.5003 14.62073962275634
SORCE                   
1 27651U 03004A   26115.66740973  .00002783  00000+0  21142-3 0  9997
2 27651  39.9899 201.2547 0016536  31.4179 328.7599 15.03418116263999
AURA                    
1 28376U 04026A   26115.87788475  .00000853  00000+0  18285-3 0  9999
2 28376  98.3381  71.9138 0001690  85.3753 274.7640 14.61245577158574
SWIFT                   
1 28485U 04047A   26115.62828939  .00043357  00000+0  43688-3 0  9997
2 28485  20.5525 228.8093 0001604 312.5282  47.5027 15.63536129178613
THEMIS A                
1 30580U 07004A   26115.13349901  .00000063  00000+0  41252-2 0  9996
2 30580   7.6046 114.3962 8382739 188.7831 127.5791  0.87844718 40815
THEMIS D                
1 30797U 07004D   26114.29748828 -.00000017  00000+0  00000+0 0  9996
2 30797   7.1883  82.6457 8339467 223.1112 208.3988  0.87834113 40602
THEMIS E                
1 30798U 07004E   26115.90852616  .00000032  00000+0  00000+0 0  9993
2 30798   5.7203 101.2036 8448582 206.1427  77.7905  0.88332060 65466
FGRST (GLAST)           
1 33053U 08029A   26115.57895805  .00003267  00000+0  11873-3 0  9995
2 33053  25.5812 209.6846 0008711  67.8410 292.3052 15.23657127987801
